[{"OBJECT_NAME":"ICEYE-X7","OBJECT_ID":"2020-068L","EPOCH":"2026-03-09T22:52:28.702272","MEAN_MOTION":15.29152508,"ECCENTRICITY":0.00068409,"INCLINATION":97.7412,"RA_OF_ASC_NODE":31.2076,"ARG_OF_PERICENTER":332.3045,"MEAN_ANOMALY":27.7829,"EPHEMERIS_TYPE":0,"CLASSIFICATION_TYPE":"U","NORAD_CAT_ID":46496,"ELEMENT_SET_NO":999,"REV_AT_EPOCH":29961,"BSTAR":0.0005654802,"MEAN_MOTION_DOT":0.00015947,"MEAN_MOTION_DDOT":0},{"OBJECT_NAME":"STARLINK-32627","OBJECT_ID":"2024-239Q","EPOCH":"2026-03-09T15:33:04.804128","MEAN_MOTION":15.30188683,"ECCENTRICITY":0.0001034,"INCLINATION":53.1585,"RA_OF_ASC_NODE":194.3422,"ARG_OF_PERICENTER":84.6982,"MEAN_ANOMALY":275.4137,"EPHEMERIS_TYPE":0,"CLASSIFICATION_TYPE":"U","NORAD_CAT_ID":62315,"ELEMENT_SET_NO":999,"REV_AT_EPOCH":6937,"BSTAR":0.00062111,"MEAN_MOTION_DOT":0.00018075,"MEAN_MOTION_DDOT":0}]
